{
  "type": "FeatureCollection",
  "features": [
    {
      "type": "Feature",
      "properties": {
        "norad_id": 29914,
        "name": "FENGYUN 1C DEB",
        "group": "fengyun-1c-debris",
        "lat": -17.517983290328925,
        "lon": -173.66255218383847,
        "alt_km": 876.6381575965497,
        "timestamp": "2025-12-06T09:34:17.185991+00:00",
        "meta_object_name": "FENGYUN 1C DEB",
        "meta_object_id": "1999-025HL",
        "meta_epoch": "2025-12-05T21:15:05.078016",
        "meta_mean_motion": 14.03128135,
        "meta_eccentricity": 0.00363218,
        "meta_inclination": 98.8455,
        "meta_ra_of_asc_node": 8.6559,
        "meta_arg_of_pericenter": 134.0084,
        "meta_mean_anomaly": 351.6807,
        "meta_ephemeris_type": 0,
        "meta_classification_type": "U",
        "meta_norad_cat_id": 29914,
        "meta_element_set_no": 999,
        "meta_rev_at_epoch": 96690,
        "meta_bstar": 0.00034539702,
        "meta_mean_motion_dot": 4.98e-06,
        "meta_mean_motion_ddot": 0,
        "tle_line1": "1 29914U 99025HL  25339.88547544  .00000498  00000+0  34540-3 0  9996",
        "tle_line2": "2 29914  98.8455   8.6559 0036321 134.0084 351.6807 14.03128135966902"
      },
      "geometry": {
        "type": "Point",
        "coordinates": [
          -173.66255218383847,
          -17.517983290328925
        ]
      }
    },
    {
      "type": "Feature",
      "properties": {
        "norad_id": 29916,
        "name": "FENGYUN 1C DEB",
        "group": "fengyun-1c-debris",
        "lat": 12.843327930282408,
        "lon": -177.83058621796744,
        "alt_km": 1104.5692801996502,
        "timestamp": "2025-12-06T09:34:17.186002+00:00",
        "meta_object_name": "FENGYUN 1C DEB",
        "meta_object_id": "1999-025HN",
        "meta_epoch": "2025-12-06T00:01:13.749312",
        "meta_mean_motion": 13.56971693,
        "meta_eccentricity": 0.02710842,
        "meta_inclination": 99.1951,
        "meta_ra_of_asc_node": 359.6808,
        "meta_arg_of_pericenter": 275.783,
        "meta_mean_anomaly": 111.0302,
        "meta_ephemeris_type": 0,
        "meta_classification_type": "U",
        "meta_norad_cat_id": 29916,
        "meta_element_set_no": 999,
        "meta_rev_at_epoch": 93361,
        "meta_bstar": 0.0010644833,
        "meta_mean_motion_dot": 9.17e-06,
        "meta_mean_motion_ddot": 0,
        "tle_line1": "1 29916U 99025HN  25340.00085358  .00000917  00000+0  10645-2 0  9999",
        "tle_line2": "2 29916  99.1951 359.6808 0271084 275.7830 111.0302 13.56971693933616"
      },
      "geometry": {
        "type": "Point",
        "coordinates": [
          -177.83058621796744,
          12.843327930282408
        ]
      }
    },
    {
      "type": "Feature",
      "properties": {
        "norad_id": 29917,
        "name": "FENGYUN 1C DEB",
        "group": "fengyun-1c-debris",
        "lat": -44.47807158839494,
        "lon": -148.65624628233996,
        "alt_km": 1167.9570892445263,
        "timestamp": "2025-12-06T09:34:17.186012+00:00",
        "meta_object_name": "FENGYUN 1C DEB",
        "meta_object_id": "1999-025HP",
        "meta_epoch": "2025-12-05T21:37:09.543360",
        "meta_mean_motion": 13.70388526,
        "meta_eccentricity": 0.02225581,
        "meta_inclination": 98.8765,
        "meta_ra_of_asc_node": 202.0568,
        "meta_arg_of_pericenter": 142.5241,
        "meta_mean_anomaly": 236.5683,
        "meta_ephemeris_type": 0,
        "meta_classification_type": "U",
        "meta_norad_cat_id": 29917,
        "meta_element_set_no": 999,
        "meta_rev_at_epoch": 94037,
        "meta_bstar": 0.0015112206,
        "meta_mean_motion_dot": 1.553e-05,
        "meta_mean_motion_ddot": 0,
        "tle_line1": "1 29917U 99025HP  25339.90080490  .00001553  00000+0  15112-2 0  9990",
        "tle_line2": "2 29917  98.8765 202.0568 0222558 142.5241 236.5683 13.70388526940378"
      },
      "geometry": {
        "type": "Point",
        "coordinates": [
          -148.65624628233996,
          -44.47807158839494
        ]
      }
    },
    {
      "type": "Feature",
      "properties": {
        "norad_id": 29918,
        "name": "FENGYUN 1C DEB",
        "group": "fengyun-1c-debris",
        "lat": 36.549158164976625,
        "lon": -110.67310364233981,
        "alt_km": 786.2322530399069,
        "timestamp": "2025-12-06T09:34:17.186022+00:00",
        "meta_object_name": "FENGYUN 1C DEB",
        "meta_object_id": "1999-025HQ",
        "meta_epoch": "2025-12-05T20:01:46.477344",
        "meta_mean_motion": 14.33514318,
        "meta_eccentricity": 0.00127625,
        "meta_inclination": 98.8557,
        "meta_ra_of_asc_node": 62.1133,
        "meta_arg_of_pericenter": 338.3638,
        "meta_mean_anomaly": 134.2255,
        "meta_ephemeris_type": 0,
        "meta_classification_type": "U",
        "meta_norad_cat_id": 29918,
        "meta_element_set_no": 999,
        "meta_rev_at_epoch": 97695,
        "meta_bstar": 0.0029205282,
        "meta_mean_motion_dot": 8.045e-05,
        "meta_mean_motion_ddot": 0,
        "tle_line1": "1 29918U 99025HQ  25339.83456571  .00008045  00000+0  29205-2 0  9991",
        "tle_line2": "2 29918  98.8557  62.1133 0012762 338.3638 134.2255 14.33514318976952"
      },
      "geometry": {
        "type": "Point",
        "coordinates": [
          -110.67310364233981,
          36.549158164976625
        ]
      }
    },
    {
      "type": "Feature",
      "properties": {
        "norad_id": 29919,
        "name": "FENGYUN 1C DEB",
        "group": "fengyun-1c-debris",
        "lat": 61.40464747375343,
        "lon": -28.690395292618753,
        "alt_km": 983.1237389589978,
        "timestamp": "2025-12-06T09:34:17.186033+00:00",
        "meta_object_name": "FENGYUN 1C DEB",
        "meta_object_id": "1999-025HR",
        "meta_epoch": "2025-12-05T23:12:15.259392",
        "meta_mean_motion": 13.85118995,
        "meta_eccentricity": 0.01376969,
        "meta_inclination": 98.4789,
        "meta_ra_of_asc_node": 135.0377,
        "meta_arg_of_pericenter": 2.3814,
        "meta_mean_anomaly": 120.7685,
        "meta_ephemeris_type": 0,
        "meta_classification_type": "U",
        "meta_norad_cat_id": 29919,
        "meta_element_set_no": 999,
        "meta_rev_at_epoch": 95441,
        "meta_bstar": 0.00024579929,
        "meta_mean_motion_dot": 2.61e-06,
        "meta_mean_motion_ddot": 0,
        "tle_line1": "1 29919U 99025HR  25339.96684328  .00000261  00000+0  24580-3 0  9993",
        "tle_line2": "2 29919  98.4789 135.0377 0137696   2.3814 120.7685 13.85118995954415"
      },
      "geometry": {
        "type": "Point",
        "coordinates": [
          -28.690395292618753,
          61.40464747375343
        ]
      }
    },
    {
      "type": "Feature",
      "properties": {
        "norad_id": 29920,
        "name": "FENGYUN 1C DEB",
        "group": "fengyun-1c-debris",
        "lat": -68.8436549970193,
        "lon": -142.20521603274727,
        "alt_km": 798.5330715460977,
        "timestamp": "2025-12-06T09:34:17.186056+00:00",
        "meta_object_name": "FENGYUN 1C DEB",
        "meta_object_id": "1999-025HS",
        "meta_epoch": "2025-12-05T13:22:12.169920",
        "meta_mean_motion": 14.03614583,
        "meta_eccentricity": 0.01255966,
        "meta_inclination": 98.3905,
        "meta_ra_of_asc_node": 194.599,
        "meta_arg_of_pericenter": 301.2969,
        "meta_mean_anomaly": 57.5951,
        "meta_ephemeris_type": 0,
        "meta_classification_type": "U",
        "meta_norad_cat_id": 29920,
        "meta_element_set_no": 999,
        "meta_rev_at_epoch": 96187,
        "meta_bstar": 0.0023035499,
        "meta_mean_motion_dot": 3.839e-05,
        "meta_mean_motion_ddot": 0,
        "tle_line1": "1 29920U 99025HS  25339.55708530  .00003839  00000+0  23035-2 0  9999",
        "tle_line2": "2 29920  98.3905 194.5990 0125596 301.2969  57.5951 14.03614583961871"
      },
      "geometry": {
        "type": "Point",
        "coordinates": [
          -142.20521603274727,
          -68.8436549970193
        ]
      }
    },
    {
      "type": "Feature",
      "properties": {
        "norad_id": 29921,
        "name": "FENGYUN 1C DEB",
        "group": "fengyun-1c-debris",
        "lat": 55.117152230545614,
        "lon": -26.119412267607725,
        "alt_km": 836.7044107484417,
        "timestamp": "2025-12-06T09:34:17.186067+00:00",
        "meta_object_name": "FENGYUN 1C DEB",
        "meta_object_id": "1999-025HT",
        "meta_epoch": "2025-12-05T13:23:27.968640",
        "meta_mean_motion": 14.06628438,
        "meta_eccentricity": 0.00464779,
        "meta_inclination": 98.7866,
        "meta_ra_of_asc_node": 345.8818,
        "meta_arg_of_pericenter": 89.4918,
        "meta_mean_anomaly": 31.3732,
        "meta_ephemeris_type": 0,
        "meta_classification_type": "U",
        "meta_norad_cat_id": 29921,
        "meta_element_set_no": 999,
        "meta_rev_at_epoch": 96775,
        "meta_bstar": 0.00067774406,
        "meta_mean_motion_dot": 1.093e-05,
        "meta_mean_motion_ddot": 0,
        "tle_line1": "1 29921U 99025HT  25339.55796260  .00001093  00000+0  67774-3 0  9996",
        "tle_line2": "2 29921  98.7866 345.8818 0046477  89.4918  31.3732 14.06628438967758"
      },
      "geometry": {
        "type": "Point",
        "coordinates": [
          -26.119412267607725,
          55.117152230545614
        ]
      }
    }
  ]
}